#aV2009  4  3  0  0   .00000000      96 DD+AD WGS84 FIT  NGA
## 1525 432000.00000000   900.00000000 54924  .0000000000000
+   31     2  3  4  5  6  7  8  9 10 11 12 13 14 15 16 17 18
+         19 20 21 22 23 24 25 26 27 28 29 30 31 32  0  0  0
+          0  0  0  0  0  0  0  0  0  0  0  0  0  0  0  0  0
+          0  0  0  0  0  0  0  0  0  0  0  0  0  0  0  0  0
+          0  0  0  0  0  0  0  0  0  0  0  0  0  0  0  0  0
++         0  0  0  0  0  0  0  0  0  0  0  0  0  0  0  0  0
++         0  0  0  0  0  0  0  0  0  0  0  0  0  0  0  0  0
++         0  0  0  0  0  0  0  0  0  0  0  0  0  0  0  0  0
++         0  0  0  0  0  0  0  0  0  0  0  0  0  0  0  0  0
++         0  0  0  0  0  0  0  0  0  0  0  0  0  0  0  0  0
%c cc cc ccc ccc cccc cccc cccc cccc ccccc ccccc ccccc ccccc
%c cc cc ccc ccc cccc cccc cccc cccc ccccc ccccc ccccc ccccc
%f  0.0000000  0.000000000  0.00000000000  0.000000000000000
%f  0.0000000  0.000000000  0.00000000000  0.000000000000000
%i    0    0    0    0      0      0      0      0         0
%i    0    0    0    0      0      0      0      0         0
/*      NGA, ST. LOUIS,MO.                                  
/*   EPHEMERIS COMPUTED FROM  3 DAYS OF DATA                
/* CCCCCCCCCCCCCCCCCCCCCCCCCCCCCCCCCCCCCCCCCCCCCCCCCCCCCCCCC
/* CCCCCCCCCCCCCCCCCCCCCCCCCCCCCCCCCCCCCCCCCCCCCCCCCCCCCCCCC
*  2009  4  3  9 30   .00000000                                                 
P  2 -13374.173013 -22859.052246  -4076.526329    153.854638                    
V  2    718.442735  -5785.494540  30506.641266      -.004264                    
P  3  19973.415032  10884.985297 -14300.928325    374.331003                    
V  3 -17619.388593   2450.980436 -22883.218042       .052307                    
P  4  -4221.188139 -24775.890823   7861.429700    -37.104189                    
V  4   7247.292810   8110.406579  29334.805866      -.146743                    
P  5 -18952.471629   9135.237185  15836.362329    -23.385660                    
V  5   8750.191898 -18970.332048  21142.053955      -.107307                    
P  6  15497.706755  13502.691790 -16653.701285     63.149942                    
V  6 -21688.017522    704.561551 -19343.861188       .178337                    
P  7  10904.002880 -11704.388735 -21201.735299     20.898867                    
V  7  11214.135719  24441.022314  -7839.964316      -.004938                    
P  8   2271.202873 -21923.378958 -14495.576331   -196.796715                    
V  8   7933.872473  16771.128789 -24687.490676      -.016216                    
P  9 -17065.174064  -6724.644411  18601.097368     48.771164                    
V  9  -9395.780507 -23115.598983 -16314.778492       .019874                    
P 10 -10648.066348 -11165.205539 -21760.515290    -13.723853                    
V 10  17183.805953 -21189.341363   2817.471462      -.006420                    
P 11  19574.036776   2942.134072  17651.712591      2.531895                    
V 11  11267.226572  20180.353320 -15324.637556      -.013465                    
P 12 -19335.412906   5767.066625  17286.646412   -298.777797                    
V 12  11836.521426 -18426.042995  19583.850526       .045970                    
P 13  20448.260366  -6711.573730 -15685.928263    293.439130                    
V 13  19116.011106   4596.523007  23145.950641       .011122                    
P 14  -2247.125485  14481.433714  22268.602774   -131.468252                    
V 14 -27561.193593  -4390.124388    -32.331942       .056919                    
P 15 -24843.602950  -7081.947481  -6277.896083   -276.750998                    
V 15   8243.553250  -1922.089883 -30276.402176      -.044887                    
P 16   5572.296746  15787.590658 -20501.169482     62.492256                    
V 16 -16958.140486  20010.774680  10998.243942      -.030764                    
P 17   4412.225132 -14735.046195  21703.528047     52.704221                    
V 17  27128.869422   4050.091161  -2959.461085       .016485                    
P 18 -16409.619678  20623.403848     50.491049    -68.962663                    
V 18  -2785.198864  -2466.117075 -31593.543778       .034406                    
P 19  25389.371047   7431.663994  -3481.665482     29.210237                    
V 19  -4902.494336   1782.104197 -31121.175087      -.008806                    
P 20  19782.849904  -8421.388751  15434.876647     86.382517                    
V 20  -9583.019525  17609.362388  21752.300384      -.010430                    
P 21  -9093.555351  15365.889549 -19224.689304     21.202413                    
V 21 -11240.539341 -22659.986315 -13260.592808      -.019430                    
P 22  -9380.854673  22897.920111   9714.348420    202.309538                    
V 22 -10064.509118   7522.619186 -27955.428549      -.007324                    
P 23  26096.862822   -647.857702  -5685.227977    389.050831                    
V 23   6765.785427   3052.751564  30711.009785       .003935                    
P 24 -15688.471711   1239.745505 -21232.743829    178.336032                    
V 24  -8874.671490 -25870.960331   5273.760255       .030738                    
P 25  14204.795871  -4852.131354 -21548.157987    338.111822                    
V 25  13177.770730  24927.213911   3216.475157       .217895                    
P 26 -25260.692958  -7857.292097  -5195.002908     54.803567                    
V 26   5907.824947   -203.885527 -31220.881756       .021070                    
P 27 -15677.368982 -20386.807742   7244.852267     37.689112                    
V 27  -1747.733205  -8404.671853 -30302.765518       .032869                    
P 28  10948.784126 -22753.071422   8114.269347    -23.864485                    
V 28   8179.030207  -6022.456596 -29793.899971      -.000979                    
P 29 -21554.313158   6683.739200 -13870.886522      5.525530                    
V 29 -17302.925045  -4776.967762  24434.258379       .040998                    
P 30 -18641.709775  16756.792523   8286.909742    136.676130                    
V 30   3745.019702 -10838.620981  29158.630718       .025451                    
P 31   6095.401134  25041.558098   6319.820249    -56.651576                    
V 31  -5312.073908  -6172.804721  30738.863289      -.010655                    
P 32  17565.592466   1349.266717  20201.837119    279.416479                    
V 32 -15692.742777  19285.482990  12849.306501      -.047059                    
EOF
